 Automated mail xmit by MAIL_REQUEST, PID=   109779 Wed Nov 30 07:04:50 2016
++++++++++++++++++++++++++++++++ (part 1 of 1)  +++++++++++++++++++++++++++++++

*******************************************************************************
 Revised: Jun 17, 2016                Saturn                                699

 PHYSICAL DATA (updated 2009-May-26):
  Mass (10^26 kg)       = 5.68319         Density (g/cm^3)       =  0.687+-.001
  Equat. radius (1 bar) = 60268+-4 km     Polar radius (km)      = 54364+-10
  Volumetric mean radius= 58232+-6 km     Flattening             =  0.09796

  Rotation period       = 10h 39m 22.4s   Rot. rate(10^-4 rad/s) =  1.63785
  m = w^2a^3/GM         =  0.15481        Hydrostatic flat., fh  =  0.09829
  Inferred rot. period  = 10.61+-0.02 hr  ks = 3*J2/m            =  0.317
  Mom. of inert. I/MRo^2=  0.210          I/MRo^2 (upper bound)  =  0.231
  Rocky core mass (Mc/M)=  0.1027         Y factor (He/H ratio)  =

  GM (km^3/s^2)         = 37931207.8      GM 1-sigma (km^3/s^2)  = +- 98
  Equ. grav, ge (m/s^2) = 10.44           Pol. grav, gp (m/s^2)  = 12.14+-0.01

  Geometric albedo      =  0.47           Visual magnitude V(1,0)= -8.88
  Vis. mag. (opposition)= +0.67           Obliquity to orbit     = 26.73 deg
  Sidereal orbit period = 29.447498 yr    Sidereal orbit period  = 10755.698 d
  Mean daily motion     = 0.0334979 deg/d Mean orbit velocity    =  9.6624 km/s

  Atmos. temp. (1 bar)  = 134+-4 K        Heat flow/mass (x10^7) = 15 erg/gm*s
  Planetary Solar Const =  15.04 W/m^2    Dipole tilt/offset     = 0.0deg/0.0Rp
  Escape velocity (km/s)=  35.5           Mag.dip.mom(gauss-Rp^3)= 0.21
  Aroche(ice)/Rp        =  2.71           Hill's sphere rad. Rp  = 1100
*******************************************************************************


*******************************************************************************
Ephemeris / MAIL_REQUEST Wed Nov 30 07:04:50 2016 Pasadena, USA  / Horizons
*******************************************************************************
Target body name: Saturn (699)                    {source: sat389}
Center body name: Solar System Barycenter (0)     {source: DE431mx}
Center-site name: BODY CENTER
*******************************************************************************
Start time      : A.D. 2016-Nov-30 00:00:00.0000 TDB
Stop  time      : A.D. 2016-Dec-30 00:00:00.0000 TDB
Step-size       : 720 minutes
*******************************************************************************
Center geodetic : 0.00000000,0.00000000,0.0000000 {E-lon(deg),Lat(deg),Alt(km)}
Center cylindric: 0.00000000,0.00000000,0.0000000 {E-lon(deg),Dxy(km),Dz(km)}
Center radii    : (undefined)
Output units    : KM-S
Output type     : GEOMETRIC cartesian states
Output format   : 2x (pos. & vel. w/uncertainties: XYZ)
Reference frame : ICRF/J2000.0
Coordinate systm: Ecliptic and Mean Equinox of Reference Epoch
*******************************************************************************
JDTDB
 State   : X       Y        Z     VX       VY        VZ
 1-sigma : X_s     Y_s      Z_s   VX_s     VY_s      VZ_s
*******************************************************************************************************************************************************
$$SOE
2457749.500000000 = A.D. 2016-Dec-27 00:00:00.0000 TDB
 XYZ   : -2.828865959866455E+08  -1.475104420711268E+09   3.690661895750362E+07   8.957018014743024E+00  -1.848687648556938E+00  -3.248939025708689E-01
 sigmas:                   n.a.                    n.a.                    n.a.                    n.a.                    n.a.                    n.a.
2457750.000000000 = A.D. 2016-Dec-27 12:00:00.0000 TDB
 XYZ   : -2.824996472311743E+08  -1.475184230448855E+09   3.689258281658131E+07   8.957281434553666E+00  -1.846212031784452E+00  -3.249255152276832E-01
 sigmas:                   n.a.                    n.a.                    n.a.                    n.a.                    n.a.                    n.a.
2457750.500000000 = A.D. 2016-Dec-28 00:00:00.0000 TDB
 XYZ   : -2.821126865199854E+08  -1.475263933492890E+09   3.687854539546025E+07   8.957565934316122E+00  -1.843742152904547E+00  -3.249559630519199E-01
 sigmas:                   n.a.                    n.a.                    n.a.                    n.a.                    n.a.                    n.a.
2457751.000000000 = A.D. 2016-Dec-28 12:00:00.0000 TDB
 XYZ   : -2.817257139321507E+08  -1.475343529820812E+09   3.686450667376548E+07   8.957824802730565E+00  -1.841277020933832E+00  -3.249822482559730E-01
 sigmas:                   n.a.                    n.a.                    n.a.                    n.a.                    n.a.                    n.a.
2457751.500000000 = A.D. 2016-Dec-29 00:00:00.0000 TDB
 XYZ   : -2.813387310446942E+08  -1.475423020570123E+09   3.685046736235404E+07   8.958045583715895E+00  -1.838864655961863E+00  -3.249780453742461E-01
 sigmas:                   n.a.                    n.a.                    n.a.                    n.a.                    n.a.                    n.a.
2457752.000000000 = A.D. 2016-Dec-29 12:00:00.0000 TDB
 XYZ   : -2.809517383266647E+08  -1.475502409195445E+09   3.683642929649359E+07   8.958299081567855E+00  -1.836547958703573E+00  -3.249268343665761E-01
 sigmas:                   n.a.                    n.a.                    n.a.                    n.a.                    n.a.                    n.a.
2457752.500000000 = A.D. 2016-Dec-30 00:00:00.0000 TDB
 XYZ   : -2.805647326356123E+08  -1.475581698701973E+09   3.682239375228852E+07   8.958641721763547E+00  -1.834261452411004E+00  -3.248686030767036E-01
 sigmas:                   n.a.                    n.a.                    n.a.                    n.a.                    n.a.                    n.a.
